[{"OBJECT_NAME":"WNISAT-1","OBJECT_ID":"2013-066H","EPOCH":"2026-03-09T23:22:50.142144","MEAN_MOTION":14.57873953,"ECCENTRICITY":0.01635812,"INCLINATION":97.7044,"RA_OF_ASC_NODE":225.2618,"ARG_OF_PERICENTER":183.9709,"MEAN_ANOMALY":176.0205,"EPHEMERIS_TYPE":0,"CLASSIFICATION_TYPE":"U","NORAD_CAT_ID":39423,"ELEMENT_SET_NO":999,"REV_AT_EPOCH":65227,"BSTAR":0.00040775548,"MEAN_MOTION_DOT":2.198e-5,"MEAN_MOTION_DDOT":0},{"OBJECT_NAME":"DMSP 5D-2 F13 DEB","OBJECT_ID":"1995-015HQ","EPOCH":"2026-03-08T03:49:15.192768","MEAN_MOTION":13.70387959,"ECCENTRICITY":0.02535849,"INCLINATION":98.7234,"RA_OF_ASC_NODE":40.7103,"ARG_OF_PERICENTER":161.905,"MEAN_ANOMALY":199.133,"EPHEMERIS_TYPE":0,"CLASSIFICATION_TYPE":"U","NORAD_CAT_ID":42298,"ELEMENT_SET_NO":999,"REV_AT_EPOCH":51997,"BSTAR":0.0031022887,"MEAN_MOTION_DOT":3.405e-5,"MEAN_MOTION_DDOT":0}]
